satname,norad_id,inclination_deg,eccentricity,mean_motion_rev_per_day,perigee_km,apogee_km,l1,l2
STARLINK-1281,45370,53.0544,0.0001273,15.06398853,546.333476011373,548.0966706492436,1 45370U 20019L   25291.16046407  .00000681  00000+0  64610-4 0  9993,2 45370  53.0544  86.4569 0001273  89.6966 270.4169 15.06398853308252
STARLINK-1300,45374,53.0541,0.0001317,15.06398978,546.3026214052506,548.126759040455,1 45374U 20019Q   25290.85084952 -.00000075  00000+0  13847-4 0  9993,2 45374  53.0541  87.8440 0001317  90.0139 270.1001 15.06398978308208
STARLINK-1302,45375,53.0538,0.0001335,15.06400556,546.2853200738873,548.1343876838737,1 45375U 20019R   25291.13097421  .00000486  00000+0  51536-4 0  9993,2 45375  53.0538  86.5889 0001335  83.5203 276.5939 15.06400556308247
STARLINK-1304,45376,53.052,0.0001267,15.06400996,546.3310640678819,548.0859466189368,1 45376U 20019S   25291.28210059  .00001890  00000+0  14575-3 0  9995,2 45376  53.0520  85.9090 0001267  86.5942 273.5192 15.06400996308261
STARLINK-1305,45377,53.0536,0.000127,15.18897358,508.29713361001814,510.04651005076266,1 45377U 20019T   25291.33336806  .01179325  00000+0  51273-1 0  9995,2 45377  53.0536  85.4216 0001270  88.7782 181.5442 15.18897358  5898
STARLINK-1319,45379,53.0543,0.0001379,15.06399718,546.257416542473,548.167427913123,1 45379U 20019V   25291.16783798  .00001099  00000+0  92663-4 0  9996,2 45379  53.0543  86.4253 0001379  89.4193 270.6954 15.06399718308252
STARLINK-1266,45383,53.0523,0.0001899,15.06367018,545.9975019748217,548.6277877499406,1 45383U 20019Z   25291.10334099  .00007754  00000+0  53934-3 0  9992,2 45383  53.0523  66.7141 0001899  87.2385 272.8821 15.06367018308512
STARLINK-1267,45384,53.0546,0.0001149,15.06399015,546.4188539268798,548.0102997192334,1 45384U 20019AA  25290.69058444  .00000958  00000+0  83162-4 0  9999,2 45384  53.0546  69.2230 0001149  80.3305 279.7814 15.06399015308441
STARLINK-1272,45386,53.0548,9.93e-05,15.15922278,517.4952183205842,518.8648268812722,1 45386U 20019AC  25291.33336806  .02000223  00000+0  94310-1 0  9995,2 45386  53.0548  65.5197 0000993  89.6257 202.0353 15.15922278  5893
STARLINK-1274,45387,53.0362,0.0005461,15.27535368,479.43577684601314,486.92971026992655,1 45387U 20019AD  25291.05266486  .00089515  00000+0  32519-2 0  9994,2 45387  53.0362  54.2898 0005461 171.0810 189.0286 15.27535368308682
STARLINK-1280,45388,53.0554,0.0001183,15.18836581,508.540762957693,510.1703436958105,1 45388U 20019AE  25291.33336806  .01157883  00000+0  50508-1 0  9992,2 45388  53.0554  85.3762 0001183 103.0592 312.8176 15.18836581  5892
STARLINK-1283,45389,53.0523,9.33e-05,15.28220377,480.4922767265316,481.7722163679373,1 45389U 20019AF  25291.33336806  .00067229  00000+0  24030-2 0  9998,2 45389  53.0523  64.2581 0000933  93.6927 286.7940 15.28220377  5756
STARLINK-1284,45390,53.0598,5.54e-05,15.06437262,546.713699645602,547.4810156124277,1 45390U 20019AG  25291.10699076  .00012817  00000+0  87687-3 0  9997,2 45390  53.0598  66.6974 0000554 323.2164  36.8787 15.06437262308518
STARLINK-1292,45394,53.0494,0.0007471,15.86114143,308.1903275312443,318.1885074642687,1 45394U 20019AL  25291.33336806  .00321811  00000+0  12272-2 0  9999,2 45394  53.0494  23.7734 0007471 321.2712  90.6071 15.86114143  6097
STARLINK-1297,45395,53.0512,8.33e-05,15.06415299,546.587791474537,547.7415467326091,1 45395U 20019AM  25291.07753927  .00009900  00000+0  68232-3 0  9998,2 45395  53.0512  66.8261 0000833  71.7301 288.3779 15.06415299307697
STARLINK-1307,45397,53.0547,0.0001016,15.06413957,546.4651710062644,547.8723931411823,1 45397U 20019AP  25291.07014309 -.00000774  00000+0 -33063-4 0  9991,2 45397  53.0547  66.8613 0001016  82.2813 277.8291 15.06413957308330
STARLINK-1312,45398,53.0466,0.0003979,15.8782272,305.72785221129834,311.0489891410725,1 45398U 20019AQ  25291.33336806  .00359813  00000+0  12577-2 0  9994,2 45398  53.0466  23.2823 0003979 300.0887 287.7197 15.87822720  6042
STARLINK-1255,45399,53.0538,0.0001546,15.22503765,497.22829093640485,499.35448259359146,1 45399U 20019AR  25291.33336806  .01803289  00000+0  69973-1 0  9998,2 45399  53.0538  55.2331 0001546 101.3364 293.0772 15.22503765  5897
STARLINK-1259,45403,53.0449,0.0003835,16.04753281,258.7294080225738,263.8218375042343,1 45403U 20019AV  25291.30324017  .00662274  22366-3  95737-3 0  9990,2 45403  53.0449   2.6530 0003835  21.7785 338.3408 16.04753281309231
STARLINK-1260,45404,53.0511,0.0001865,15.06398997,545.9230539111586,548.5062100698915,1 45404U 20019AW  25291.07107301  .00000760  00000+0  69939-4 0  9999,2 45404  53.0511  56.8561 0001865  93.7172 266.4030 15.06398997308362
STARLINK-1263,45405,53.0547,8.28e-05,15.06407187,546.6161138692114,547.7629479427296,1 45405U 20019AX  25291.05632302  .00003158  00000+0  23074-3 0  9995,2 45405  53.0547  56.9249 0000828  90.1133 269.9951 15.06407187308364
STARLINK-1265,45406,53.0545,0.0001772,15.06401038,545.9812054188669,548.4355478203406,1 45406U 20019AY  25291.32909135  .00002222  00000+0  16800-3 0  9997,2 45406  53.0545  55.7001 0001772  84.7360 275.3832 15.06401038308409
STARLINK-1278,45408,53.0541,0.0001439,15.16592628,515.1556218651549,517.13979700453,1 45408U 20019BA  25291.33336806  .02102566  00000+0  96826-1 0  9997,2 45408  53.0541  85.4966 0001439  69.6398 264.3344 15.16592628  5856
STARLINK-1296,45412,53.0553,0.0001369,15.06403997,546.251229195509,548.1473862765679,1 45412U 20019BE  25291.06738599  .00001170  00000+0  97385-4 0  9998,2 45412  53.0553  56.8735 0001369  91.9454 268.1692 15.06403997308362
STARLINK-1298,45413,53.0497,0.0007135,15.49412682,413.59370114552985,423.29242089260515,1 45413U 20019BF  25291.33336806  .00136238  00000+0  24043-2 0  9997,2 45413  53.0497  35.9723 0007135 238.9015 309.0058 15.49412682  5967
STARLINK-1309,45414,53.0543,0.0001576,15.06397178,546.1287706795174,548.3116432711568,1 45414U 20019BG  25291.08213036  .00000554  00000+0  56119-4 0  9991,2 45414  53.0543  56.8075 0001576  89.8144 270.3025 15.06397178308359
STARLINK-1316,45415,53.0559,0.0001451,15.06398784,546.210416189123,548.2201534221731,1 45415U 20019BH  25290.64351130  .00000478  00000+0  50978-4 0  9993,2 45415  53.0559  58.7761 0001451  85.7219 274.3936 15.06398784308326
STARLINK-1318,45416,53.0528,0.0003141,15.5869655,389.30213603501124,393.5547770548119,1 45416U 20019BJ  25291.29443485  .00063050  00000+0  80486-3 0  9992,2 45416  53.0528  28.4977 0003141 353.1195   6.9773 15.58696550308797
STARLINK-1286,45417,53.054,0.000118,15.11756305,530.0284844540774,531.6590039097046,1 45417U 20019BK  25291.33336806  .00386240  00000+0  21221-1 0  9995,2 45417  53.0540  85.5681 0001180  89.2037 265.1236 15.11756305  5747
STARLINK-1308,45419,53.0535,0.0001265,15.06400916,546.3326942941867,548.0848067690713,1 45419U 20019BM  25291.27472509 -.00000235  00000+0  31455-5 0  9993,2 45419  53.0535  85.9424 0001265  85.8544 274.2590 15.06400916308008
STARLINK-1329,45531,53.0547,0.0001455,15.06399564,546.205255806196,548.2205326254116,1 45531U 20025A   25291.24338694  .00000370  00000+0  43754-4 0  9991,2 45531  53.0547  26.0847 0001455  68.3896 291.7248 15.06399564303621
STARLINK-1338,45532,53.0539,0.0002318,15.06402166,545.59962521126,548.8102137251253,1 45532U 20025B   25290.98907476  .00004459  00000+0  31806-3 0  9998,2 45532  53.0539  27.2244 0002318  86.4000 273.7254 15.06402166303589
STARLINK-1350,45535,53.0749,9.87e-05,15.31813312,469.7262880490589,471.07818969481195,1 45535U 20025E   25291.17704510  .00014039  00000+0  46165-3 0  9996,2 45535  53.0749 340.3330 0000987  70.9295 289.1813 15.31813312304281
STARLINK-1362,45538,53.0556,9.13e-05,15.0640854,546.5531022582381,547.8176661255911,1 45538U 20025H   25291.28663898  .00002128  00000+0  16165-3 0  9997,2 45538  53.0556  25.6072 0000913  91.3430 268.7664 15.06408540303633
STARLINK-1368,45540,53.0554,0.0001118,15.06397701,546.4443492945893,547.9928588076555,1 45540U 20025K   25291.29131271  .00000606  00000+0  59600-4 0  9997,2 45540  53.0554  25.8688 0001118  82.9875 277.1242 15.06397701303627
STARLINK-1371,45542,53.0528,0.0001339,15.06397665,546.2914092560632,548.1460195163754,1 45542U 20025M   25291.26182846 -.00000508  00000+0 -15206-4 0  9997,2 45542  53.0528  25.9991 0001339  93.1258 266.9884 15.06397665303629
STARLINK-1372,45543,53.054,0.0001124,15.06397457,546.4409418240311,547.9977619319325,1 45543U 20025N   25291.23233852  .00001549  00000+0  12283-3 0  9994,2 45543  53.0540  26.1332 0001124  86.1887 273.9231 15.06397457302710
STARLINK-1373,45544,53.0548,0.0001508,15.06404343,546.1539067454705,548.2425878560562,1 45544U 20025P   25291.25077423  .00001782  00000+0  13849-3 0  9995,2 45544  53.0548  26.0520 0001508  93.3331 266.7830 15.06404343303626
STARLINK-1294,45551,53.0505,0.0007653,15.57303802,390.28018164284185,400.6478553617617,1 45551U 20025W   25291.28400472  .00073110  00000+0  98005-3 0  9991,2 45551  53.0505 323.9266 0007653   6.5765 353.5345 15.57303802304505
STARLINK-1323,45553,53.0205,6.37e-05,16.29621425,193.13875265863862,193.97598652132456,1 45553U 20025Y   25291.54831455  .04389680  12068-4  97383-3 0  9997,2 45553  53.0205 295.9669 0000637 197.4622 162.6398 16.29621425303618
STARLINK-1325,45554,53.0582,0.00017,15.55202756,400.41075768370865,402.7158557879993,1 45554U 20025Z   25291.33336806  .00263041  00000+0  37069-2 0  9995,2 45554  53.0582 316.5481 0001700  77.5698  52.3538 15.55202756  6017
STARLINK-1327,45555,53.0542,0.0001484,15.06401799,546.1783233600981,548.233765175637,1 45555U 20025AA  25291.22312140 -.00001111  00000+0 -55671-4 0  9990,2 45555  53.0542   6.1759 0001484  84.7880 275.3279 15.06401799303895
STARLINK-1336,45557,53.0331,0.0002917,16.08887398,247.9638126014761,251.83060775969534,1 45557U 20025AC  25291.51836601  .00885214  44435-3  98972-3 0  9993,2 45557  53.0331 303.0738 0002917  70.0778 290.0570 16.08887398304801
